[{"OBJECT_NAME":"CONNECTA IOT-9","OBJECT_ID":"2025-135G","EPOCH":"2026-03-09T20:17:19.885056","MEAN_MOTION":15.19721393,"ECCENTRICITY":0.00062915,"INCLINATION":97.4635,"RA_OF_ASC_NODE":184.7076,"ARG_OF_PERICENTER":145.897,"MEAN_ANOMALY":214.267,"EPHEMERIS_TYPE":0,"CLASSIFICATION_TYPE":"U","NORAD_CAT_ID":64534,"ELEMENT_SET_NO":999,"REV_AT_EPOCH":3973,"BSTAR":0.0002397867,"MEAN_MOTION_DOT":5.057e-5,"MEAN_MOTION_DDOT":0},{"OBJECT_NAME":"GEESAT-4 04","OBJECT_ID":"2025-170D","EPOCH":"2026-03-09T23:17:55.914720","MEAN_MOTION":15.1505395,"ECCENTRICITY":0.00176751,"INCLINATION":49.9794,"RA_OF_ASC_NODE":229.0049,"ARG_OF_PERICENTER":290.2477,"MEAN_ANOMALY":69.6574,"EPHEMERIS_TYPE":0,"CLASSIFICATION_TYPE":"U","NORAD_CAT_ID":65122,"ELEMENT_SET_NO":999,"REV_AT_EPOCH":3230,"BSTAR":0.00059156623,"MEAN_MOTION_DOT":0.00010965,"MEAN_MOTION_DDOT":0}]
